start=new Date('2022-12-30T00:00:00.000Z').valueOf();
sats=[{"APOAPSIS":"525.295","BSTAR":"0.00146580000000","OBJECT_ID":"2020-019BL","RCS_SIZE":"LARGE","ELEMENT_SET_NO":"999","DECAY_DATE":null,"OBJECT_NAME":"STARLINK-1299","EPOCH":"2022-12-29T08:20:54.500064","ECCENTRICITY":"0.00017040","CLASSIFICATION_TYPE":"U","ARG_OF_PERICENTER":"25.4504","FILE":"3725790","COUNTRY_CODE":"US","TIME_SYSTEM":"UTC","REV_AT_EPOCH":"15337","GP_ID":"221736115","MEAN_MOTION_DDOT":"0.0000000000000","LAUNCH_DATE":"2020-03-18","TLE_LINE2":"2 45418  52.9986  19.3444 0001704  25.4504 334.6571 15.13966845153376","SITE":"AFETR","NORAD_CAT_ID":"45418","INCLINATION":"52.9986","MEAN_MOTION_DOT":"0.00026696","RA_OF_ASC_NODE":"19.3444","MEAN_ELEMENT_THEORY":"SGP4","TLE_LINE1":"1 45418U 20019BL  22363.34785301  .00026696  00000-0  14658-2 0  9996","MEAN_MOTION":"15.13966845","MEAN_ANOMALY":"334.6571","SEMIMAJOR_AXIS":"6902.254","OBJECT_TYPE":"PAYLOAD","EPHEMERIS_TYPE":"0","CENTER_NAME":"EARTH","PERIAPSIS":"522.943","PERIOD":"95.114","REF_FRAME":"TEME"},{"CLASSIFICATION_TYPE":"U","ARG_OF_PERICENTER":"56.6878","FILE":"3725790","COUNTRY_CODE":"US","TIME_SYSTEM":"UTC","GP_ID":"221734366","REV_AT_EPOCH":"15369","TLE_LINE2":"2 45419  53.0538   1.9584 0001777  56.6878 303.4281 15.06391521153696","SITE":"AFETR","LAUNCH_DATE":"2020-03-18","MEAN_MOTION_DDOT":"0.0000000000000","NORAD_CAT_ID":"45419","APOAPSIS":"548.470","OBJECT_ID":"2020-019BM","BSTAR":"-0.00013936000000","ELEMENT_SET_NO":"999","RCS_SIZE":"LARGE","OBJECT_NAME":"STARLINK-1308","DECAY_DATE":null,"EPOCH":"2022-12-29T11:24:52.225344","ECCENTRICITY":"0.00017770","EPHEMERIS_TYPE":"0","CENTER_NAME":"EARTH","PERIAPSIS":"546.009","REF_FRAME":"TEME","PERIOD":"95.593","MEAN_MOTION_DOT":"-0.00002356","INCLINATION":"53.0538","MEAN_ELEMENT_THEORY":"SGP4","RA_OF_ASC_NODE":"1.9584","TLE_LINE1":"1 45419U 20019BM  22363.47560446 -.00002356  00000-0 -13936-3 0  9990","MEAN_MOTION":"15.06391521","MEAN_ANOMALY":"303.4281","SEMIMAJOR_AXIS":"6925.375","OBJECT_TYPE":"PAYLOAD"},{"FILE":"3725821","COUNTRY_CODE":"US","CLASSIFICATION_TYPE":"U","ARG_OF_PERICENTER":"46.1170","MEAN_MOTION_DDOT":"0.0000000000000","LAUNCH_DATE":"2020-04-22","SITE":"AFETR","TLE_LINE2":"2 45531  53.0580 303.0023 0001555  46.1170 313.9947 15.06389713148683","NORAD_CAT_ID":"45531","TIME_SYSTEM":"UTC","REV_AT_EPOCH":"14868","GP_ID":"221742545","APOAPSIS":"548.322","BSTAR":"-0.00012282000000","OBJECT_ID":"2020-025A","EPOCH":"2022-12-29T05:53:07.725120","ECCENTRICITY":"0.00015550","ELEMENT_SET_NO":"999","RCS_SIZE":"LARGE","DECAY_DATE":null,"OBJECT_NAME":"STARLINK-1329","CENTER_NAME":"EARTH","EPHEMERIS_TYPE":"0","PERIAPSIS":"546.168","PERIOD":"95.593","REF_FRAME":"TEME","MEAN_ELEMENT_THEORY":"SGP4","RA_OF_ASC_NODE":"303.0023","TLE_LINE1":"1 45531U 20025A   22363.24522830 -.00002110  00000-0 -12282-3 0  9993","INCLINATION":"53.0580","MEAN_MOTION_DOT":"-0.00002110","SEMIMAJOR_AXIS":"6925.380","OBJECT_TYPE":"PAYLOAD","MEAN_MOTION":"15.06389713","MEAN_ANOMALY":"313.9947"},{"RA_OF_ASC_NODE":"302.9518","MEAN_ELEMENT_THEORY":"SGP4","TLE_LINE1":"1 45532U 20025B   22363.25628051 -.00002736  00000-0 -16485-3 0  9990","INCLINATION":"53.0517","MEAN_MOTION_DOT":"-0.00002736","SEMIMAJOR_AXIS":"6925.370","OBJECT_TYPE":"PAYLOAD","MEAN_MOTION":"15.06392945","MEAN_ANOMALY":"261.9792","CENTER_NAME":"EARTH","EPHEMERIS_TYPE":"0","PERIAPSIS":"546.237","REF_FRAME":"TEME","PERIOD":"95.593","APOAPSIS":"548.234","BSTAR":"-0.00016485000000","OBJECT_ID":"2020-025B","EPOCH":"2022-12-29T06:09:02.636064","ECCENTRICITY":"0.00014420","RCS_SIZE":"LARGE","ELEMENT_SET_NO":"999","DECAY_DATE":null,"OBJECT_NAME":"STARLINK-1338","FILE":"3725790","COUNTRY_CODE":"US","CLASSIFICATION_TYPE":"U","ARG_OF_PERICENTER":"98.1361","LAUNCH_DATE":"2020-04-22","MEAN_MOTION_DDOT":"0.0000000000000","SITE":"AFETR","TLE_LINE2":"2 45532  53.0517 302.9518 0001442  98.1361 261.9792 15.06392945149283","NORAD_CAT_ID":"45532","TIME_SYSTEM":"UTC","GP_ID":"221735627","REV_AT_EPOCH":"14928"},{"CLASSIFICATION_TYPE":"U","ARG_OF_PERICENTER":"30.6779","FILE":"3725851","COUNTRY_CODE":"US","TIME_SYSTEM":"UTC","GP_ID":"221743056","REV_AT_EPOCH":"14873","SITE":"AFETR","TLE_LINE2":"2 45534  53.0550 301.6979 0002211  30.6779 329.4339 15.06373702148734","MEAN_MOTION_DDOT":"0.0000000000000","LAUNCH_DATE":"2020-04-22","NORAD_CAT_ID":"45534","APOAPSIS":"548.825","OBJECT_ID":"2020-025D","BSTAR":"-0.00047026000000","RCS_SIZE":"LARGE","ELEMENT_SET_NO":"999","OBJECT_NAME":"STARLINK-1341","DECAY_DATE":null,"EPOCH":"2022-12-29T12:47:07.645632","ECCENTRICITY":"0.00022110","EPHEMERIS_TYPE":"0","CENTER_NAME":"EARTH","PERIAPSIS":"545.763","PERIOD":"95.594","REF_FRAME":"TEME","MEAN_MOTION_DOT":"-0.00007275","INCLINATION":"53.0550","RA_OF_ASC_NODE":"301.6979","MEAN_ELEMENT_THEORY":"SGP4","TLE_LINE1":"1 45534U 20025D   22363.53272738 -.00007275  00000-0 -47026-3 0  9998","MEAN_MOTION":"15.06373702","MEAN_ANOMALY":"329.4339","SEMIMAJOR_AXIS":"6925.429","OBJECT_TYPE":"PAYLOAD"},{"SEMIMAJOR_AXIS":"6925.371","OBJECT_TYPE":"PAYLOAD","MEAN_MOTION":"15.06392646","MEAN_ANOMALY":"298.5394","MEAN_ELEMENT_THEORY":"SGP4","RA_OF_ASC_NODE":"303.1168","TLE_LINE1":"1 45535U 20025E   22363.21942069 -.00002521  00000-0 -15043-3 0  9998","INCLINATION":"53.0564","MEAN_MOTION_DOT":"-0.00002521","PERIAPSIS":"546.055","REF_FRAME":"TEME","PERIOD":"95.593","CENTER_NAME":"EARTH","EPHEMERIS_TYPE":"0","EPOCH":"2022-12-29T05:15:57.947616","ECCENTRICITY":"0.00017050","ELEMENT_SET_NO":"999","RCS_SIZE":"LARGE","DECAY_DATE":null,"OBJECT_NAME":"STARLINK-1350","APOAPSIS":"548.417","BSTAR":"-0.00015043000000","OBJECT_ID":"2020-025E","LAUNCH_DATE":"2020-04-22","MEAN_MOTION_DDOT":"0.0000000000000","TLE_LINE2":"2 45535  53.0564 303.1168 0001705  61.5766 298.5394 15.06392646149289","SITE":"AFETR","NORAD_CAT_ID":"45535","TIME_SYSTEM":"UTC","REV_AT_EPOCH":"14928","GP_ID":"221735125","FILE":"3725790","COUNTRY_CODE":"US","CLASSIFICATION_TYPE":"U","ARG_OF_PERICENTER":"61.5766"},{"SEMIMAJOR_AXIS":"6925.426","OBJECT_TYPE":"PAYLOAD","MEAN_MOTION":"15.06374846","MEAN_ANOMALY":"252.6792","MEAN_ELEMENT_THEORY":"SGP4","RA_OF_ASC_NODE":"301.6080","TLE_LINE1":"1 45536U 20025F   22363.55484679 -.00006097  00000-0 -39103-3 0  9999","MEAN_MOTION_DOT":"-0.00006097","INCLINATION":"53.0531","PERIAPSIS":"546.487","REF_FRAME":"TEME","PERIOD":"95.594","CENTER_NAME":"EARTH","EPHEMERIS_TYPE":"0","EPOCH":"2022-12-29T13:18:58.762656","ECCENTRICITY":"0.00011610","RCS_SIZE":"LARGE","ELEMENT_SET_NO":"999","OBJECT_NAME":"STARLINK-1352","DECAY_DATE":null,"APOAPSIS":"548.095","OBJECT_ID":"2020-025F","BSTAR":"-0.00039103000000","TLE_LINE2":"2 45536  53.0531 301.6080 0001161 107.4324 252.6792 15.06374846148741","SITE":"AFETR","LAUNCH_DATE":"2020-04-22","MEAN_MOTION_DDOT":"0.0000000000000","NORAD_CAT_ID":"45536","TIME_SYSTEM":"UTC","GP_ID":"221742577","REV_AT_EPOCH":"14874","FILE":"3725825","COUNTRY_CODE":"US","CLASSIFICATION_TYPE":"U","ARG_OF_PERICENTER":"107.4324"},{"ARG_OF_PERICENTER":"158.6028","CLASSIFICATION_TYPE":"U","COUNTRY_CODE":"US","FILE":"3725825","REV_AT_EPOCH":"14986","GP_ID":"221742575","TIME_SYSTEM":"UTC","NORAD_CAT_ID":"45537","SITE":"AFETR","TLE_LINE2":"2 45537  52.9687 219.0482 0006322 158.6028 201.5243 15.45884286149868","LAUNCH_DATE":"2020-04-22","MEAN_MOTION_DDOT":"0.0000000000000","OBJECT_ID":"2020-025G","BSTAR":"0.00240670000000","APOAPSIS":"433.086","OBJECT_NAME":"STARLINK-1353","DECAY_DATE":null,"RCS_SIZE":"LARGE","ELEMENT_SET_NO":"999","ECCENTRICITY":"0.00063220","EPOCH":"2022-12-29T16:52:07.877280","EPHEMERIS_TYPE":"0","CENTER_NAME":"EARTH","PERIOD":"93.151","REF_FRAME":"TEME","PERIAPSIS":"424.480","MEAN_MOTION_DOT":"0.00120341","INCLINATION":"52.9687","TLE_LINE1":"1 45537U 20025G   22363.70286895  .00120341  00000-0  24067-2 0  9996","MEAN_ELEMENT_THEORY":"SGP4","RA_OF_ASC_NODE":"219.0482","MEAN_ANOMALY":"201.5243","MEAN_MOTION":"15.45884286","OBJECT_TYPE":"PAYLOAD","SEMIMAJOR_AXIS":"6806.918"},{"MEAN_ELEMENT_THEORY":"SGP4","RA_OF_ASC_NODE":"302.9784","TLE_LINE1":"1 45538U 20025H   22363.24891074 -.00002416  00000-0 -14339-3 0  9993","INCLINATION":"53.0555","MEAN_MOTION_DOT":"-0.00002416","SEMIMAJOR_AXIS":"6925.363","OBJECT_TYPE":"PAYLOAD","MEAN_MOTION":"15.06395296","MEAN_ANOMALY":"307.0528","CENTER_NAME":"EARTH","EPHEMERIS_TYPE":"0","PERIAPSIS":"545.991","PERIOD":"95.592","REF_FRAME":"TEME","APOAPSIS":"548.465","BSTAR":"-0.00014339000000","OBJECT_ID":"2020-025H","EPOCH":"2022-12-29T05:58:25.887936","ECCENTRICITY":"0.00017860","RCS_SIZE":"LARGE","ELEMENT_SET_NO":"999","DECAY_DATE":null,"OBJECT_NAME":"STARLINK-1362","FILE":"3725790","COUNTRY_CODE":"US","CLASSIFICATION_TYPE":"U","ARG_OF_PERICENTER":"53.0624","MEAN_MOTION_DDOT":"0.0000000000000","LAUNCH_DATE":"2020-04-22","TLE_LINE2":"2 45538  53.0555 302.9784 0001786  53.0624 307.0528 15.06395296149280","SITE":"AFETR","NORAD_CAT_ID":"45538","TIME_SYSTEM":"UTC","REV_AT_EPOCH":"14928","GP_ID":"221734378"},{"OBJECT_ID":"2020-025K","BSTAR":"-0.00012206000000","APOAPSIS":"548.324","ECCENTRICITY":"0.00015360","EPOCH":"2022-12-29T13:24:17.991648","OBJECT_NAME":"STARLINK-1368","DECAY_DATE":null,"RCS_SIZE":"LARGE","ELEMENT_SET_NO":"999","COUNTRY_CODE":"US","FILE":"3725826","ARG_OF_PERICENTER":"53.4335","CLASSIFICATION_TYPE":"U","NORAD_CAT_ID":"45540","SITE":"AFETR","TLE_LINE2":"2 45540  53.0562 301.5988 0001536  53.4335 306.6795 15.06384884148740","LAUNCH_DATE":"2020-04-22","MEAN_MOTION_DDOT":"0.0000000000000","REV_AT_EPOCH":"14874","GP_ID":"221742210","TIME_SYSTEM":"UTC","TLE_LINE1":"1 45540U 20025K   22363.55854157 -.00002098  00000-0 -12206-3 0  9998","RA_OF_ASC_NODE":"301.5988","MEAN_ELEMENT_THEORY":"SGP4","MEAN_MOTION_DOT":"-0.00002098","INCLINATION":"53.0562","OBJECT_TYPE":"PAYLOAD","SEMIMAJOR_AXIS":"6925.395","MEAN_ANOMALY":"306.6795","MEAN_MOTION":"15.06384884","CENTER_NAME":"EARTH","EPHEMERIS_TYPE":"0","PERIOD":"95.593","REF_FRAME":"TEME","PERIAPSIS":"546.196"}];
